[{"OBJECT_NAME":"STARLINK-36553","OBJECT_ID":"2026-012P","EPOCH":"2026-03-13T00:12:49.708224","MEAN_MOTION":15.27626581,"ECCENTRICITY":0.00014567,"INCLINATION":42.9998,"RA_OF_ASC_NODE":295.2904,"ARG_OF_PERICENTER":255.4471,"MEAN_ANOMALY":104.6219,"EPHEMERIS_TYPE":0,"CLASSIFICATION_TYPE":"U","NORAD_CAT_ID":67506,"ELEMENT_SET_NO":999,"REV_AT_EPOCH":827,"BSTAR":0.0010861511,"MEAN_MOTION_DOT":0.0002979,"MEAN_MOTION_DDOT":0},{"OBJECT_NAME":"STARLINK-36521","OBJECT_ID":"2026-012Q","EPOCH":"2026-03-13T15:50:41.831232","MEAN_MOTION":15.27606689,"ECCENTRICITY":0.00011108,"INCLINATION":42.9991,"RA_OF_ASC_NODE":291.5746,"ARG_OF_PERICENTER":209.1617,"MEAN_ANOMALY":150.9173,"EPHEMERIS_TYPE":0,"CLASSIFICATION_TYPE":"U","NORAD_CAT_ID":67507,"ELEMENT_SET_NO":999,"REV_AT_EPOCH":837,"BSTAR":0.0010828248,"MEAN_MOTION_DOT":0.00029679,"MEAN_MOTION_DDOT":0},{"OBJECT_NAME":"STARLINK-36526","OBJECT_ID":"2026-012R","EPOCH":"2026-03-13T15:45:10.696320","MEAN_MOTION":15.27587884,"ECCENTRICITY":0.00018858,"INCLINATION":43.0059,"RA_OF_ASC_NODE":291.5495,"ARG_OF_PERICENTER":259.5581,"MEAN_ANOMALY":100.5059,"EPHEMERIS_TYPE":0,"CLASSIFICATION_TYPE":"U","NORAD_CAT_ID":67508,"ELEMENT_SET_NO":999,"REV_AT_EPOCH":837,"BSTAR":0.0010789582,"MEAN_MOTION_DOT":0.00029555,"MEAN_MOTION_DDOT":0},{"OBJECT_NAME":"STARLINK-36541","OBJECT_ID":"2026-012S","EPOCH":"2026-03-13T15:37:58.157184","MEAN_MOTION":15.27601245,"ECCENTRICITY":8.242e-5,"INCLINATION":42.9978,"RA_OF_ASC_NODE":292.3982,"ARG_OF_PERICENTER":232.3918,"MEAN_ANOMALY":127.6859,"EPHEMERIS_TYPE":0,"CLASSIFICATION_TYPE":"U","NORAD_CAT_ID":67509,"ELEMENT_SET_NO":999,"REV_AT_EPOCH":836,"BSTAR":0.00090421861,"MEAN_MOTION_DOT":0.0002472,"MEAN_MOTION_DDOT":0},{"OBJECT_NAME":"STARLINK-36549","OBJECT_ID":"2026-012T","EPOCH":"2026-03-13T15:46:59.829024","MEAN_MOTION":15.2758862,"ECCENTRICITY":0.00011995,"INCLINATION":43.0022,"RA_OF_ASC_NODE":291.5433,"ARG_OF_PERICENTER":252.3444,"MEAN_ANOMALY":107.7277,"EPHEMERIS_TYPE":0,"CLASSIFICATION_TYPE":"U","NORAD_CAT_ID":67510,"ELEMENT_SET_NO":999,"REV_AT_EPOCH":837,"BSTAR":0.00098614268,"MEAN_MOTION_DOT":0.00026981,"MEAN_MOTION_DDOT":0},{"OBJECT_NAME":"STARLINK-36540","OBJECT_ID":"2026-012U","EPOCH":"2026-03-13T15:32:24.956448","MEAN_MOTION":15.27601839,"ECCENTRICITY":0.00022362,"INCLINATION":43.0038,"RA_OF_ASC_NODE":292.3684,"ARG_OF_PERICENTER":267.52,"MEAN_ANOMALY":92.5396,"EPHEMERIS_TYPE":0,"CLASSIFICATION_TYPE":"U","NORAD_CAT_ID":67511,"ELEMENT_SET_NO":999,"REV_AT_EPOCH":836,"BSTAR":0.00090499572,"MEAN_MOTION_DOT":0.00024742,"MEAN_MOTION_DDOT":0},{"OBJECT_NAME":"STARLINK-36538","OBJECT_ID":"2026-012V","EPOCH":"2026-03-13T15:25:00.447456","MEAN_MOTION":15.27597655,"ECCENTRICITY":4.872e-5,"INCLINATION":42.9966,"RA_OF_ASC_NODE":292.3097,"ARG_OF_PERICENTER":294.4753,"MEAN_ANOMALY":65.6048,"EPHEMERIS_TYPE":0,"CLASSIFICATION_TYPE":"U","NORAD_CAT_ID":67512,"ELEMENT_SET_NO":999,"REV_AT_EPOCH":836,"BSTAR":0.00086415793,"MEAN_MOTION_DOT":0.00023607,"MEAN_MOTION_DDOT":0},{"OBJECT_NAME":"STARLINK-36531","OBJECT_ID":"2026-012W","EPOCH":"2026-03-13T15:10:12.506880","MEAN_MOTION":15.27602429,"ECCENTRICITY":5.218e-5,"INCLINATION":42.998,"RA_OF_ASC_NODE":292.226,"ARG_OF_PERICENTER":267.5627,"MEAN_ANOMALY":92.5165,"EPHEMERIS_TYPE":0,"CLASSIFICATION_TYPE":"U","NORAD_CAT_ID":67513,"ELEMENT_SET_NO":999,"REV_AT_EPOCH":836,"BSTAR":0.0012318427,"MEAN_MOTION_DOT":0.00033814,"MEAN_MOTION_DDOT":0},{"OBJECT_NAME":"STARLINK-36530","OBJECT_ID":"2026-012X","EPOCH":"2026-03-13T15:04:39.370080","MEAN_MOTION":15.27588465,"ECCENTRICITY":0.00010289,"INCLINATION":42.9985,"RA_OF_ASC_NODE":292.197,"ARG_OF_PERICENTER":275.7098,"MEAN_ANOMALY":84.3637,"EPHEMERIS_TYPE":0,"CLASSIFICATION_TYPE":"U","NORAD_CAT_ID":67514,"ELEMENT_SET_NO":999,"REV_AT_EPOCH":836,"BSTAR":0.00093376908,"MEAN_MOTION_DOT":0.00025529,"MEAN_MOTION_DDOT":0},{"OBJECT_NAME":"STARLINK-36543","OBJECT_ID":"2026-012Y","EPOCH":"2026-03-13T14:59:06.400896","MEAN_MOTION":15.27606045,"ECCENTRICITY":0.00012018,"INCLINATION":42.9973,"RA_OF_ASC_NODE":292.1713,"ARG_OF_PERICENTER":266.2526,"MEAN_ANOMALY":93.8188,"EPHEMERIS_TYPE":0,"CLASSIFICATION_TYPE":"U","NORAD_CAT_ID":67515,"ELEMENT_SET_NO":999,"REV_AT_EPOCH":836,"BSTAR":0.0013862092,"MEAN_MOTION_DOT":0.00038111,"MEAN_MOTION_DDOT":0},{"OBJECT_NAME":"STARLINK-36537","OBJECT_ID":"2026-012Z","EPOCH":"2026-03-13T14:44:17.706048","MEAN_MOTION":15.27604243,"ECCENTRICITY":0.00014201,"INCLINATION":42.9994,"RA_OF_ASC_NODE":292.0899,"ARG_OF_PERICENTER":266.5659,"MEAN_ANOMALY":93.5031,"EPHEMERIS_TYPE":0,"CLASSIFICATION_TYPE":"U","NORAD_CAT_ID":67516,"ELEMENT_SET_NO":999,"REV_AT_EPOCH":836,"BSTAR":0.0010236984,"MEAN_MOTION_DOT":0.00028036,"MEAN_MOTION_DDOT":0},{"OBJECT_NAME":"STARLINK-36544","OBJECT_ID":"2026-012AA","EPOCH":"2026-03-13T14:53:32.978976","MEAN_MOTION":15.2760827,"ECCENTRICITY":0.0005091,"INCLINATION":43.0007,"RA_OF_ASC_NODE":292.137,"ARG_OF_PERICENTER":295.3147,"MEAN_ANOMALY":64.7177,"EPHEMERIS_TYPE":0,"CLASSIFICATION_TYPE":"U","NORAD_CAT_ID":67517,"ELEMENT_SET_NO":999,"REV_AT_EPOCH":836,"BSTAR":0.001199467,"MEAN_MOTION_DOT":0.0003293,"MEAN_MOTION_DDOT":0},{"OBJECT_NAME":"STARLINK-36412","OBJECT_ID":"2026-012AB","EPOCH":"2026-03-13T14:00:01.000224","MEAN_MOTION":15.2757267,"ECCENTRICITY":0.00014063,"INCLINATION":43.0034,"RA_OF_ASC_NODE":292.111,"ARG_OF_PERICENTER":265.4664,"MEAN_ANOMALY":348.9572,"EPHEMERIS_TYPE":0,"CLASSIFICATION_TYPE":"U","NORAD_CAT_ID":67518,"ELEMENT_SET_NO":999,"REV_AT_EPOCH":598,"BSTAR":0.0022572906,"MEAN_MOTION_DOT":0.00062366,"MEAN_MOTION_DDOT":0},{"OBJECT_NAME":"STARLINK-36415","OBJECT_ID":"2026-012AC","EPOCH":"2026-03-13T08:05:29.887008","MEAN_MOTION":15.27574228,"ECCENTRICITY":0.00020213,"INCLINATION":43.0036,"RA_OF_ASC_NODE":293.445,"ARG_OF_PERICENTER":256.0232,"MEAN_ANOMALY":104.0395,"EPHEMERIS_TYPE":0,"CLASSIFICATION_TYPE":"U","NORAD_CAT_ID":67519,"ELEMENT_SET_NO":999,"REV_AT_EPOCH":832,"BSTAR":0.0010062902,"MEAN_MOTION_DOT":0.00027528,"MEAN_MOTION_DDOT":0},{"OBJECT_NAME":"STARLINK-36547","OBJECT_ID":"2026-012AD","EPOCH":"2026-03-12T16:35:00.532032","MEAN_MOTION":15.27576941,"ECCENTRICITY":0.0002032,"INCLINATION":43.003,"RA_OF_ASC_NODE":297.2028,"ARG_OF_PERICENTER":283.8183,"MEAN_ANOMALY":76.2443,"EPHEMERIS_TYPE":0,"CLASSIFICATION_TYPE":"U","NORAD_CAT_ID":67520,"ELEMENT_SET_NO":999,"REV_AT_EPOCH":822,"BSTAR":0.00068283739,"MEAN_MOTION_DOT":0.00018574,"MEAN_MOTION_DDOT":0},{"OBJECT_NAME":"STARLINK-36444","OBJECT_ID":"2026-012AE","EPOCH":"2026-03-13T14:38:44.809440","MEAN_MOTION":15.27600384,"ECCENTRICITY":0.00015037,"INCLINATION":42.9989,"RA_OF_ASC_NODE":292.0607,"ARG_OF_PERICENTER":190.3253,"MEAN_ANOMALY":169.7568,"EPHEMERIS_TYPE":0,"CLASSIFICATION_TYPE":"U","NORAD_CAT_ID":67521,"ELEMENT_SET_NO":999,"REV_AT_EPOCH":836,"BSTAR":0.00094932154,"MEAN_MOTION_DOT":0.0002597,"MEAN_MOTION_DDOT":0}]
