STARLINK-36553          
1 67506U 26012P   26072.00890866  .00029790  00000+0  10862-2 0  9994
2 67506  42.9998 295.2904 0001456 255.4471 104.6219 15.27626581  8275
STARLINK-36521          
1 67507U 26012Q   26072.66020638  .00029679  00000+0  10828-2 0  9997
2 67507  42.9991 291.5746 0001110 209.1617 150.9173 15.27606689  8378
STARLINK-36526          
1 67508U 26012R   26072.65637380  .00029555  00000+0  10790-2 0  9996
2 67508  43.0059 291.5495 0001885 259.5581 100.5059 15.27587884  8374
STARLINK-36541          
1 67509U 26012S   26072.65136756  .00024720  00000+0  90422-3 0  9998
2 67509  42.9978 292.3982 0000824 232.3918 127.6859 15.27601245  8363
STARLINK-36549          
1 67510U 26012T   26072.65763691  .00026981  00000+0  98614-3 0  9996
2 67510  43.0022 291.5433 0001199 252.3444 107.7277 15.27588620  8376
STARLINK-36540          
1 67511U 26012U   26072.64751107  .00024742  00000+0  90500-3 0  9994
2 67511  43.0038 292.3684 0002236 267.5200  92.5396 15.27601839  8362
STARLINK-36538          
1 67512U 26012V   26072.64236629  .00023607  00000+0  86416-3 0  9992
2 67512  42.9966 292.3097 0000487 294.4753  65.6048 15.27597655  8362
STARLINK-36531          
1 67513U 26012W   26072.63208920  .00033814  00000+0  12318-2 0  9995
2 67513  42.9980 292.2260 0000521 267.5627  92.5165 15.27602429  8365
STARLINK-36530          
1 67514U 26012X   26072.62823345  .00025529  00000+0  93377-3 0  9998
2 67514  42.9985 292.1970 0001028 275.7098  84.3637 15.27588465  8360
STARLINK-36543          
1 67515U 26012Y   26072.62437964  .00038111  00000+0  13862-2 0  9998
2 67515  42.9973 292.1713 0001201 266.2526  93.8188 15.27606045  8368
STARLINK-36537          
1 67516U 26012Z   26072.61409382  .00028036  00000+0  10237-2 0  9999
2 67516  42.9994 292.0899 0001420 266.5659  93.5031 15.27604243  8361
STARLINK-36544          
1 67517U 26012AA  26072.62052059  .00032930  00000+0  11995-2 0  9996
2 67517  43.0007 292.1370 0005091 295.3147  64.7177 15.27608270  8369
STARLINK-36412          
1 67518U 26012AB  26072.58334491  .00062366  00000+0  22573-2 0  9995
2 67518  43.0034 292.1110 0001406 265.4664 348.9572 15.27572670  5985
STARLINK-36415          
1 67519U 26012AC  26072.33715147  .00027528  00000+0  10063-2 0  9992
2 67519  43.0036 293.4450 0002021 256.0232 104.0395 15.27574228  8326
STARLINK-36547          
1 67520U 26012AD  26071.69097838  .00018574  00000+0  68284-3 0  9992
2 67520  43.0030 297.2028 0002032 283.8183  76.2443 15.27576941  8227
STARLINK-36444          
1 67521U 26012AE  26072.61024085  .00025970  00000+0  94932-3 0  9997
2 67521  42.9989 292.0607 0001503 190.3253 169.7568 15.27600384  8367
